ORBCOMM FM20 [+]        
1 25416U 98046D   24049.85979433  .00001568  00000+0  59586-3 0  9997
2 25416  44.9946 310.6428 0001275 339.7088  20.3708 14.34901904334648
ORBCOMM FM16 [-]        
1 25417U 98046E   24049.94022762  .00002223  00000+0  81001-3 0  9998
2 25417  44.9948 306.6074 0004588  17.4123 342.6880 14.35765449334580
ORBCOMM FM15 [-]        
1 25418U 98046F   24049.81212563  .00002091  00000+0  76863-3 0  9998
2 25418  44.9978 311.0847 0004130  17.2692 342.8295 14.35509712334574
ORBCOMM FM14 [-]        
1 25419U 98046G   24050.08115164  .00002390  00000+0  86931-3 0  9998
2 25419  44.9969 309.0303 0003069   6.2432 133.0518 14.35650720334797
ORBCOMM FM21 [-]        
1 25475U 98053A   24049.24362750  .00002155  00000+0  79915-3 0  9992
2 25475  45.0095  41.6351 0002570 295.5660  64.4921 14.34971343327530
ORBCOMM FM22 [-]        
1 25476U 98053B   24049.66702412  .00002432  00000+0  88744-3 0  9990
2 25476  45.0092  37.2362 0004237 302.9834  57.0606 14.35429432327580
